start=new Date('2022-12-27T00:00:00.000Z').valueOf();
sats=[{"RA_OF_ASC_NODE":"292.6852","BSTAR":"-0.00007697200000","ELEMENT_SET_NO":"999","SITE":"AFETR","GP_ID":"221496188","COUNTRY_CODE":"US","EPHEMERIS_TYPE":"0","RCS_SIZE":"LARGE","LAUNCH_DATE":"2022-07-07","PERIAPSIS":"538.144","OBJECT_TYPE":"PAYLOAD","PERIOD":"95.438","ECCENTRICITY":"0.00023500","TLE_LINE2":"2 53024  53.2184 292.6852 0002350  38.7209 321.3951 15.08831997 26959","REF_FRAME":"TEME","OBJECT_ID":"2022-076AQ","MEAN_ANOMALY":"321.3951","TLE_LINE1":"1 53024U 22076AQ  22360.52728450 -.00001513  00000-0 -76972-4 0  9994","FILE":"3722980","INCLINATION":"53.2184","DECAY_DATE":null,"CLASSIFICATION_TYPE":"U","REV_AT_EPOCH":"2695","OBJECT_NAME":"STARLINK-4289","APOAPSIS":"541.396","ARG_OF_PERICENTER":"38.7209","MEAN_MOTION_DDOT":"0.0000000000000","EPOCH":"2022-12-26T12:39:17.380800","MEAN_MOTION":"15.08831997","NORAD_CAT_ID":"53024","TIME_SYSTEM":"UTC","MEAN_MOTION_DOT":"-0.00001513","CENTER_NAME":"EARTH","SEMIMAJOR_AXIS":"6917.905","MEAN_ELEMENT_THEORY":"SGP4"},{"CENTER_NAME":"EARTH","TIME_SYSTEM":"UTC","MEAN_MOTION_DOT":"-0.00001454","NORAD_CAT_ID":"53025","MEAN_MOTION":"15.08836515","SEMIMAJOR_AXIS":"6917.891","MEAN_ELEMENT_THEORY":"SGP4","OBJECT_NAME":"STARLINK-4218","REV_AT_EPOCH":"2644","CLASSIFICATION_TYPE":"U","EPOCH":"2022-12-26T06:07:08.589792","MEAN_MOTION_DDOT":"0.0000000000000","ARG_OF_PERICENTER":"39.0199","APOAPSIS":"541.366","PERIOD":"95.438","OBJECT_TYPE":"PAYLOAD","DECAY_DATE":null,"INCLINATION":"53.2216","TLE_LINE1":"1 53025U 22076AR  22360.25496053 -.00001454  00000-0 -73252-4 0  9998","MEAN_ANOMALY":"321.0960","FILE":"3722937","OBJECT_ID":"2022-076AR","REF_FRAME":"TEME","ECCENTRICITY":"0.00023270","TLE_LINE2":"2 53025  53.2216 293.9164 0002327  39.0199 321.0960 15.08836515 26444","SITE":"AFETR","ELEMENT_SET_NO":"999","BSTAR":"-0.00007325200000","RA_OF_ASC_NODE":"293.9164","PERIAPSIS":"538.146","LAUNCH_DATE":"2022-07-07","RCS_SIZE":"LARGE","EPHEMERIS_TYPE":"0","COUNTRY_CODE":"US","GP_ID":"221494653"},{"COUNTRY_CODE":"US","GP_ID":"221500673","LAUNCH_DATE":"2022-07-07","PERIAPSIS":"538.121","RCS_SIZE":"LARGE","EPHEMERIS_TYPE":"0","BSTAR":"-0.00007138500000","ELEMENT_SET_NO":"999","RA_OF_ASC_NODE":"292.6609","SITE":"AFETR","FILE":"3723160","TLE_LINE1":"1 53026U 22076AS  22360.53463889 -.00001424  00000-0 -71385-4 0  9993","MEAN_ANOMALY":"330.1931","OBJECT_ID":"2022-076AS","REF_FRAME":"TEME","ECCENTRICITY":"0.00023550","TLE_LINE2":"2 53026  53.2203 292.6609 0002355  29.9195 330.1931 15.08838576 26950","DECAY_DATE":null,"INCLINATION":"53.2203","OBJECT_TYPE":"PAYLOAD","PERIOD":"95.438","MEAN_MOTION_DDOT":"0.0000000000000","ARG_OF_PERICENTER":"29.9195","APOAPSIS":"541.379","EPOCH":"2022-12-26T12:49:52.800096","REV_AT_EPOCH":"2695","CLASSIFICATION_TYPE":"U","OBJECT_NAME":"STARLINK-4119","SEMIMAJOR_AXIS":"6917.885","MEAN_ELEMENT_THEORY":"SGP4","NORAD_CAT_ID":"53026","MEAN_MOTION":"15.08838576","CENTER_NAME":"EARTH","MEAN_MOTION_DOT":"-0.00001424","TIME_SYSTEM":"UTC"},{"RCS_SIZE":"LARGE","EPHEMERIS_TYPE":"0","PERIAPSIS":"538.636","LAUNCH_DATE":"2022-07-07","COUNTRY_CODE":"US","GP_ID":"221526857","SITE":"AFETR","BSTAR":"0.00003205500000","ELEMENT_SET_NO":"999","RA_OF_ASC_NODE":"291.2898","DECAY_DATE":null,"INCLINATION":"53.2196","TLE_LINE1":"1 53027U 22076AT  22360.84007022  .00000222  00000-0  32055-4 0  9995","MEAN_ANOMALY":"315.6010","FILE":"3723236","TLE_LINE2":"2 53027  53.2196 291.2898 0001598  44.5111 315.6010 15.08841131 26537","ECCENTRICITY":"0.00015980","REF_FRAME":"TEME","OBJECT_ID":"2022-076AT","PERIOD":"95.437","OBJECT_TYPE":"PAYLOAD","EPOCH":"2022-12-26T20:09:42.067008","ARG_OF_PERICENTER":"44.5111","MEAN_MOTION_DDOT":"0.0000000000000","APOAPSIS":"540.847","OBJECT_NAME":"STARLINK-4158","CLASSIFICATION_TYPE":"U","REV_AT_EPOCH":"2653","SEMIMAJOR_AXIS":"6917.877","MEAN_ELEMENT_THEORY":"SGP4","CENTER_NAME":"EARTH","MEAN_MOTION_DOT":"0.00000222","TIME_SYSTEM":"UTC","MEAN_MOTION":"15.08841131","NORAD_CAT_ID":"53027"},{"PERIOD":"95.438","OBJECT_TYPE":"PAYLOAD","DECAY_DATE":null,"INCLINATION":"53.2162","MEAN_ANOMALY":"301.8734","TLE_LINE1":"1 53029U 22076AV  22360.56132009  .00000187  00000-0  29833-4 0  9990","FILE":"3723236","TLE_LINE2":"2 53029  53.2162 282.5389 0001543  58.2408 301.8734 15.08836760 26623","ECCENTRICITY":"0.00015430","OBJECT_ID":"2022-076AV","REF_FRAME":"TEME","SITE":"AFETR","ELEMENT_SET_NO":"999","BSTAR":"0.00002983300000","RA_OF_ASC_NODE":"282.5389","EPHEMERIS_TYPE":"0","RCS_SIZE":"LARGE","PERIAPSIS":"538.688","LAUNCH_DATE":"2022-07-07","COUNTRY_CODE":"US","GP_ID":"221527063","CENTER_NAME":"EARTH","TIME_SYSTEM":"UTC","MEAN_MOTION_DOT":"0.00000187","MEAN_MOTION":"15.08836760","NORAD_CAT_ID":"53029","SEMIMAJOR_AXIS":"6917.890","MEAN_ELEMENT_THEORY":"SGP4","OBJECT_NAME":"STARLINK-4143","CLASSIFICATION_TYPE":"U","REV_AT_EPOCH":"2662","EPOCH":"2022-12-26T13:28:18.055776","ARG_OF_PERICENTER":"58.2408","MEAN_MOTION_DDOT":"0.0000000000000","APOAPSIS":"540.823"},{"TIME_SYSTEM":"UTC","MEAN_MOTION_DOT":"0.00001017","CENTER_NAME":"EARTH","NORAD_CAT_ID":"53030","MEAN_MOTION":"15.08839028","MEAN_ELEMENT_THEORY":"SGP4","SEMIMAJOR_AXIS":"6917.883","OBJECT_NAME":"STARLINK-4160","REV_AT_EPOCH":"2652","CLASSIFICATION_TYPE":"U","EPOCH":"2022-12-26T18:44:55.608288","APOAPSIS":"541.076","MEAN_MOTION_DDOT":"0.0000000000000","ARG_OF_PERICENTER":"39.9044","PERIOD":"95.438","OBJECT_TYPE":"PAYLOAD","INCLINATION":"53.2196","DECAY_DATE":null,"REF_FRAME":"TEME","OBJECT_ID":"2022-076AW","ECCENTRICITY":"0.00019190","TLE_LINE2":"2 53030  53.2196 291.5498 0001919  39.9044 320.2089 15.08839028 26529","TLE_LINE1":"1 53030U 22076AW  22360.78119917  .00001017  00000-0  82000-4 0  9997","MEAN_ANOMALY":"320.2089","FILE":"3723236","SITE":"AFETR","RA_OF_ASC_NODE":"291.5498","BSTAR":"0.00008200000000","ELEMENT_SET_NO":"999","LAUNCH_DATE":"2022-07-07","PERIAPSIS":"538.421","EPHEMERIS_TYPE":"0","RCS_SIZE":"MEDIUM","GP_ID":"221527683","COUNTRY_CODE":"US"},{"RA_OF_ASC_NODE":"282.8986","ELEMENT_SET_NO":"999","BSTAR":"-0.00000116620000","SITE":"AFETR","GP_ID":"221494859","COUNTRY_CODE":"US","LAUNCH_DATE":"2022-07-07","PERIAPSIS":"538.654","RCS_SIZE":"MEDIUM","EPHEMERIS_TYPE":"0","OBJECT_TYPE":"PAYLOAD","PERIOD":"95.437","OBJECT_ID":"2022-076AX","REF_FRAME":"TEME","TLE_LINE2":"2 53031  53.2181 282.8986 0001555  47.8961 312.2163 15.08845076 26615","ECCENTRICITY":"0.00015550","FILE":"3722937","TLE_LINE1":"1 53031U 22076AX  22360.48402436 -.00000307  00000-0 -11662-5 0  9996","MEAN_ANOMALY":"312.2163","INCLINATION":"53.2181","DECAY_DATE":null,"REV_AT_EPOCH":"2661","CLASSIFICATION_TYPE":"U","OBJECT_NAME":"STARLINK-4137","APOAPSIS":"540.806","MEAN_MOTION_DDOT":"0.0000000000000","ARG_OF_PERICENTER":"47.8961","EPOCH":"2022-12-26T11:36:59.704704","NORAD_CAT_ID":"53031","MEAN_MOTION":"15.08845076","MEAN_MOTION_DOT":"-0.00000307","TIME_SYSTEM":"UTC","CENTER_NAME":"EARTH","SEMIMAJOR_AXIS":"6917.865","MEAN_ELEMENT_THEORY":"SGP4"},{"REV_AT_EPOCH":"2648","CLASSIFICATION_TYPE":"U","OBJECT_NAME":"STARLINK-4115","MEAN_MOTION_DDOT":"0.0000000000000","ARG_OF_PERICENTER":"44.1354","APOAPSIS":"541.092","EPOCH":"2022-12-26T12:18:05.144256","NORAD_CAT_ID":"53032","MEAN_MOTION":"15.08835008","CENTER_NAME":"EARTH","TIME_SYSTEM":"UTC","MEAN_MOTION_DOT":"-0.00001160","MEAN_ELEMENT_THEORY":"SGP4","SEMIMAJOR_AXIS":"6917.896","BSTAR":"-0.00005477000000","ELEMENT_SET_NO":"999","RA_OF_ASC_NODE":"292.7525","SITE":"AFETR","COUNTRY_CODE":"US","GP_ID":"221493829","LAUNCH_DATE":"2022-07-07","PERIAPSIS":"538.430","RCS_SIZE":"LARGE","EPHEMERIS_TYPE":"0","OBJECT_TYPE":"PAYLOAD","PERIOD":"95.438","MEAN_ANOMALY":"315.9791","TLE_LINE1":"1 53032U 22076AY  22360.51255954 -.00001160  00000-0 -54770-4 0  9996","FILE":"3722937","REF_FRAME":"TEME","OBJECT_ID":"2022-076AY","ECCENTRICITY":"0.00019240","TLE_LINE2":"2 53032  53.2187 292.7525 0001924  44.1354 315.9791 15.08835008 26483","DECAY_DATE":null,"INCLINATION":"53.2187"},{"OBJECT_TYPE":"PAYLOAD","PERIOD":"95.438","TLE_LINE2":"2 53033  53.2174 282.8786 0002022  45.2476 314.8680 15.08838521 26619","ECCENTRICITY":"0.00020220","REF_FRAME":"TEME","OBJECT_ID":"2022-076AZ","TLE_LINE1":"1 53033U 22076AZ  22360.48771912  .00000586  00000-0  54953-4 0  9992","FILE":"3722937","MEAN_ANOMALY":"314.8680","INCLINATION":"53.2174","DECAY_DATE":null,"RA_OF_ASC_NODE":"282.8786","BSTAR":"0.00005495300000","ELEMENT_SET_NO":"999","SITE":"AFETR","GP_ID":"221494036","COUNTRY_CODE":"US","RCS_SIZE":"LARGE","EPHEMERIS_TYPE":"0","PERIAPSIS":"538.351","LAUNCH_DATE":"2022-07-07","MEAN_MOTION":"15.08838521","NORAD_CAT_ID":"53033","MEAN_MOTION_DOT":"0.00000586","TIME_SYSTEM":"UTC","CENTER_NAME":"EARTH","SEMIMAJOR_AXIS":"6917.885","MEAN_ELEMENT_THEORY":"SGP4","CLASSIFICATION_TYPE":"U","REV_AT_EPOCH":"2661","OBJECT_NAME":"STARLINK-4167","APOAPSIS":"541.149","ARG_OF_PERICENTER":"45.2476","MEAN_MOTION_DDOT":"0.0000000000000","EPOCH":"2022-12-26T11:42:18.931968"},{"OBJECT_NAME":"STARLINK-4151","REV_AT_EPOCH":"2661","CLASSIFICATION_TYPE":"U","EPOCH":"2022-12-26T11:47:37.156128","MEAN_MOTION_DDOT":"0.0000000000000","ARG_OF_PERICENTER":"42.2333","APOAPSIS":"541.010","CENTER_NAME":"EARTH","TIME_SYSTEM":"UTC","MEAN_MOTION_DOT":"-0.00000684","NORAD_CAT_ID":"53034","MEAN_MOTION":"15.08838760","MEAN_ELEMENT_THEORY":"SGP4","SEMIMAJOR_AXIS":"6917.884","SITE":"AFETR","ELEMENT_SET_NO":"999","BSTAR":"-0.00002489000000","RA_OF_ASC_NODE":"282.8486","LAUNCH_DATE":"2022-07-07","PERIAPSIS":"538.488","EPHEMERIS_TYPE":"0","RCS_SIZE":"LARGE","COUNTRY_CODE":"US","GP_ID":"221494654","PERIOD":"95.438","OBJECT_TYPE":"PAYLOAD","DECAY_DATE":null,"INCLINATION":"53.2156","TLE_LINE1":"1 53034U 22076BA  22360.49140227 -.00000684  00000-0 -24890-4 0  9991","FILE":"3722937","MEAN_ANOMALY":"317.8800","REF_FRAME":"TEME","OBJECT_ID":"2022-076BA","TLE_LINE2":"2 53034  53.2156 282.8486 0001823  42.2333 317.8800 15.08838760 26616","ECCENTRICITY":"0.00018230"}];
